STARLINK-4455
1 53500U 22099AM  26092.79366578  .00076099  00000+0  51779-2 0  9996
2 53500  97.6030 215.0687 0002271 101.5539 258.5942 15.05966035199683
